{"type": "FeatureCollection", "features": [{"type": "Feature", "properties": {"norad_id": 50032, "name": "COSMOS 1408 DEB", "group": "cosmos-1408-debris", "lat": 2.8115098209547145, "lon": -130.49335679035119, "alt_km": 420.95821473310116, "timestamp": "2025-12-21T03:56:51.107309+00:00", "meta": {"OBJECT_NAME": "COSMOS 1408 DEB", "OBJECT_ID": "1982-092RU", "EPOCH": "2025-12-20T14:45:17.705664", "MEAN_MOTION": 15.45767226, "ECCENTRICITY": 0.0016015, "INCLINATION": 82.5637, "RA_OF_ASC_NODE": 50.4376, "ARG_OF_PERICENTER": 179.1551, "MEAN_ANOMALY": 180.9729, "EPHEMERIS_TYPE": 0, "CLASSIFICATION_TYPE": "U", "NORAD_CAT_ID": 50032, "ELEMENT_SET_NO": 999, "REV_AT_EPOCH": 22725, "BSTAR": 7.5967e-05, "MEAN_MOTION_DOT": 3.734e-05, "MEAN_MOTION_DDOT": 0}, "tle": {"line1": "1 50032U 82092RU  25354.61478826  .00003734  00000+0  75967-4 0  9996", "line2": "2 50032  82.5637  50.4376 0016015 179.1551 180.9729 15.45767226227259"}}, "geometry": {"type": "Point", "coordinates": [-130.49335679035119, 2.8115098209547145]}}, {"type": "Feature", "properties": {"norad_id": 50058, "name": "COSMOS 1408 DEB", "group": "cosmos-1408-debris", "lat": -42.353675549869244, "lon": -112.68522933327468, "alt_km": 390.88596338054685, "timestamp": "2025-12-21T03:56:51.107325+00:00", "meta": {"OBJECT_NAME": "COSMOS 1408 DEB", "OBJECT_ID": "1982-092SW", "EPOCH": "2025-12-20T17:47:22.881120", "MEAN_MOTION": 15.6455551, "ECCENTRICITY": 0.0016189, "INCLINATION": 82.6127, "RA_OF_ASC_NODE": 60.9651, "ARG_OF_PERICENTER": 71.6171, "MEAN_ANOMALY": 288.6847, "EPHEMERIS_TYPE": 0, "CLASSIFICATION_TYPE": "U", "NORAD_CAT_ID": 50058, "ELEMENT_SET_NO": 999, "REV_AT_EPOCH": 22929, "BSTAR": 0.00023339, "MEAN_MOTION_DOT": 0.000227, "MEAN_MOTION_DDOT": 0}, "tle": {"line1": "1 50058U 82092SW  25354.74123705  .00022700  00000+0  23339-3 0  9990", "line2": "2 50058  82.6127  60.9651 0016189  71.6171 288.6847 15.64555510229295"}}, "geometry": {"type": "Point", "coordinates": [-112.68522933327468, -42.353675549869244]}}, {"type": "Feature", "properties": {"norad_id": 50404, "name": "COSMOS 1408 DEB", "group": "cosmos-1408-debris", "lat": -79.80958739040246, "lon": 76.04536440330575, "alt_km": 533.2277193741866, "timestamp": "2025-12-21T03:56:51.107336+00:00", "meta": {"OBJECT_NAME": "COSMOS 1408 DEB", "OBJECT_ID": "1982-092ADS", "EPOCH": "2025-12-20T20:27:26.540064", "MEAN_MOTION": 15.14964314, "ECCENTRICITY": 0.0168837, "INCLINATION": 82.2054, "RA_OF_ASC_NODE": 206.7205, "ARG_OF_PERICENTER": 171.102, "MEAN_ANOMALY": 189.3275, "EPHEMERIS_TYPE": 0, "CLASSIFICATION_TYPE": "U", "NORAD_CAT_ID": 50404, "ELEMENT_SET_NO": 999, "REV_AT_EPOCH": 21316, "BSTAR": 0.002082, "MEAN_MOTION_DOT": 0.00056108, "MEAN_MOTION_DDOT": 0}, "tle": {"line1": "1 50404U 82092ADS 25354.85239051  .00056108  00000+0  20820-2 0  9999", "line2": "2 50404  82.2054 206.7205 0168837 171.1020 189.3275 15.14964314213169"}}, "geometry": {"type": "Point", "coordinates": [76.04536440330575, -79.80958739040246]}}, {"type": "Feature", "properties": {"norad_id": 50621, "name": "COSMOS 1408 DEB", "group": "cosmos-1408-debris", "lat": 12.012870378631726, "lon": 66.99953313349305, "alt_km": 404.19124017935246, "timestamp": "2025-12-21T03:56:51.107346+00:00", "meta": {"OBJECT_NAME": "COSMOS 1408 DEB", "OBJECT_ID": "1982-092ALR", "EPOCH": "2025-12-20T15:33:22.898016", "MEAN_MOTION": 15.57043156, "ECCENTRICITY": 0.0029067, "INCLINATION": 82.5698, "RA_OF_ASC_NODE": 65.946, "ARG_OF_PERICENTER": 123.8284, "MEAN_ANOMALY": 236.5744, "EPHEMERIS_TYPE": 0, "CLASSIFICATION_TYPE": "U", "NORAD_CAT_ID": 50621, "ELEMENT_SET_NO": 999, "REV_AT_EPOCH": 22373, "BSTAR": 0.00024864, "MEAN_MOTION_DOT": 0.00018378, "MEAN_MOTION_DDOT": 0}, "tle": {"line1": "1 50621U 82092ALR 25354.64818169  .00018378  00000+0  24864-3 0  9990", "line2": "2 50621  82.5698  65.9460 0029067 123.8284 236.5744 15.57043156223731"}}, "geometry": {"type": "Point", "coordinates": [66.99953313349305, 12.012870378631726]}}]}